NORAD_CAT_ID,OBJECT_NAME,OBJECT_TYPE,EPOCH,MEAN_MOTION,ECCENTRICITY,INCLINATION,RA_OF_ASC_NODE,ARG_OF_PERICENTER,MEAN_ANOMALY,BSTAR,MEAN_MOTION_DOT,MEAN_MOTION_DDOT,TLE_LINE0,TLE_LINE1,TLE_LINE2,SEMIMAJOR_AXIS,PERIOD,APOGEE,PERIGEE,DECAYED
52359.0,STARLINK-3853,PAYLOAD,2023-12-23 22:35:04,15.08838596,0.0001276,53.216,220.7712,77.0668,283.0467,6.8559e-05,8.03e-06,0.0,0 STARLINK-3853,1 52359U 22045AE  23357.94101898  .00000803  00000-0  68559-4 0  9995,2 52359  53.2160 220.7712 0001276  77.0668 283.0467 15.08838596 93997,6917.885,95.438,540.632,538.867,0.0
52359.0,STARLINK-3853,PAYLOAD,2023-12-24 14:28:55,15.08818008,0.0001174,53.2169,217.797,91.5352,268.5775,0.00034925,5.272e-05,0.0,0 STARLINK-3853,1 52359U 22045AE  23358.60342014  .00005272  00000-0  34925-3 0  9990,2 52359  53.2169 217.7970 0001174  91.5352 268.5775 15.08818008 94094,6917.948,95.439,540.625,539.0,0.0
52359.0,STARLINK-3853,PAYLOAD,2023-12-24 22:25:52,15.0874483,0.0001558,53.2167,216.3119,96.4974,263.6195,0.0015354,0.00024169,0.0,0 STARLINK-3853,1 52359U 22045AE  23358.93463921  .00024169  00000-0  15354-2 0  9997,2 52359  53.2167 216.3119 0001558  96.4974 263.6195 15.08744830 94141,6918.171,95.444,541.114,538.958,0.0
52359.0,STARLINK-3853,PAYLOAD,2023-12-25 00:01:13,15.08849849,0.0001257,53.2162,216.0127,82.5762,277.5373,0.00014026,1.946e-05,0.0,0 STARLINK-3853,1 52359U 22045AE  23359.00084958  .00001946  00000-0  14026-3 0  9999,2 52359  53.2162 216.0127 0001257  82.5762 277.5373 15.08849849 94158,6917.85,95.437,540.585,538.846,0.0
52359.0,STARLINK-3853,PAYLOAD,2023-12-25 14:19:42,15.08842552,0.0001313,53.2161,213.3352,78.674,281.4399,7.2496e-05,8.66e-06,0.0,0 STARLINK-3853,1 52359U 22045AE  23359.59701500  .00000866  00000-0  72496-4 0  9998,2 52359  53.2161 213.3352 0001313  78.6740 281.4399 15.08842552 94248,6917.873,95.437,540.646,538.829,0.0
52359.0,STARLINK-3853,PAYLOAD,2023-12-25 20:41:13,15.08858068,0.0001537,53.2166,212.1474,80.4767,279.6399,0.00023103,3.393e-05,0.0,0 STARLINK-3853,1 52359U 22045AE  23359.86196012  .00003393  00000-0  23103-3 0  9992,2 52359  53.2166 212.1474 0001537  80.4767 279.6399 15.08858068 94285,6917.825,95.436,540.753,538.627,0.0
52359.0,STARLINK-3853,PAYLOAD,2023-12-25 23:51:59,15.08862693,0.0001569,53.2159,211.5516,82.0218,278.0952,0.00026112,3.873e-05,0.0,0 STARLINK-3853,1 52359U 22045AE  23359.99443534  .00003873  00000-0  26112-3 0  9996,2 52359  53.2159 211.5516 0001569  82.0218 278.0952 15.08862693 94301,6917.811,95.436,540.761,538.591,0.0
52359.0,STARLINK-3853,PAYLOAD,2023-12-26 14:10:29,15.08839153,0.0001131,53.2159,208.8746,95.3094,264.8027,-3.864e-05,-9.03e-06,0.0,0 STARLINK-3853,1 52359U 22045AE  23360.59061551 -.00000903  00000-0 -38640-4 0  9992,2 52359  53.2159 208.8746 0001131  95.3094 264.8027 15.08839153 94399,6917.883,95.438,540.53,538.966,0.0
52359.0,STARLINK-3853,PAYLOAD,2023-12-26 18:56:38,15.08836474,0.0001099,53.2161,207.9822,84.496,275.6158,-7.1989e-05,-1.433e-05,0.0,0 STARLINK-3853,1 52359U 22045AE  23360.78933804 -.00001433  00000-0 -71989-4 0  9994,2 52359  53.2161 207.9822 0001099  84.4960 275.6158 15.08836474 94423,6917.891,95.438,540.516,538.996,0.0
52359.0,STARLINK-3853,PAYLOAD,2023-12-26 20:32:01,15.08836625,0.0001242,53.2155,207.6839,101.1573,258.9559,-7.873e-05,-1.541e-05,0.0,0 STARLINK-3853,1 52359U 22045AE  23360.85557716 -.00001541  00000-0 -78730-4 0  9997,2 52359  53.2155 207.6839 0001242 101.1573 258.9559 15.08836625 94436,6917.891,95.438,540.615,538.897,0.0
52359.0,STARLINK-3853,PAYLOAD,2023-12-26 23:42:48,15.0883611,0.0001221,53.2154,207.0892,101.8397,258.2732,-8.0198e-05,-1.564e-05,0.0,0 STARLINK-3853,1 52359U 22045AE  23360.98805736 -.00001564  00000-0 -80198-4 0  9995,2 52359  53.2154 207.0892 0001221 101.8397 258.2732 15.08836110 94453,6917.892,95.438,540.602,538.913,0.0
52359.0,STARLINK-3853,PAYLOAD,2023-12-27 18:47:25,15.08848229,0.0001199,53.2158,203.5205,88.6945,271.4184,-0.00012331,-2.25e-05,0.0,0 STARLINK-3853,1 52359U 22045AE  23361.78293331 -.00002250  00000-0 -12331-3 0  9992,2 52359  53.2158 203.5205 0001199  88.6945 271.4184 15.08848229 94576,6917.855,95.437,540.55,538.891,0.0
52359.0,STARLINK-3853,PAYLOAD,2023-12-27 23:33:34,15.08847602,0.0001257,53.2158,202.6279,104.6033,255.5099,-0.00010302,-1.927e-05,0.0,0 STARLINK-3853,1 52359U 22045AE  23361.98165148 -.00001927  00000-0 -10302-3 0  9994,2 52359  53.2158 202.6279 0001257 104.6033 255.5099 15.08847602 94605,6917.857,95.437,540.592,538.853,0.0
52359.0,STARLINK-3853,PAYLOAD,2023-12-28 18:38:12,15.08830495,0.0001358,53.2159,199.0599,101.2072,258.9073,0.00010183,1.333e-05,0.0,0 STARLINK-3853,1 52359U 22045AE  23362.77653898  .00001333  00000-0  10183-3 0  9992,2 52359  53.2159 199.0599 0001358 101.2072 258.9073 15.08830495 94722,6917.909,95.438,540.714,538.835,0.0
52359.0,STARLINK-3853,PAYLOAD,2023-12-28 20:13:36,15.08830757,0.0001376,53.216,198.7625,102.1705,257.9441,0.00010104,1.32e-05,0.0,0 STARLINK-3853,1 52359U 22045AE  23362.84277877  .00001320  00000-0  10104-3 0  9998,2 52359  53.2160 198.7625 0001376 102.1705 257.9441 15.08830757 94733,6917.909,95.438,540.726,538.822,0.0
52359.0,STARLINK-3853,PAYLOAD,2023-12-29 12:07:27,15.08834025,0.0001451,53.2166,195.7882,102.1176,257.9979,5.9903e-05,6.65e-06,0.0,0 STARLINK-3853,1 52359U 22045AE  23363.50518180  .00000665  00000-0  59903-4 0  9999,2 52359  53.2166 195.7882 0001451 102.1176 257.9979 15.08834025 94836,6917.899,95.438,540.767,538.76,0.0
52359.0,STARLINK-3853,PAYLOAD,2023-12-29 18:29:00,15.08836191,0.0001403,53.2161,194.5991,103.9186,256.1962,5.4108e-05,5.73e-06,0.0,0 STARLINK-3853,1 52359U 22045AE  23363.77014079  .00000573  00000-0  54108-4 0  9996,2 52359  53.2161 194.5991 0001403 103.9186 256.1962 15.08836191 94879,6917.892,95.438,540.728,538.786,0.0
52359.0,STARLINK-3853,PAYLOAD,2023-12-30 19:55:10,15.08840354,0.0001339,53.216,189.8418,97.0803,263.0341,8.0952e-05,1.001e-05,0.0,0 STARLINK-3853,1 52359U 22045AE  23364.82997948  .00001001  00000-0  80952-4 0  9991,2 52359  53.2160 189.8418 0001339  97.0803 263.0341 15.08840354 95039,6917.879,95.438,540.671,538.818,0.0
52359.0,STARLINK-3853,PAYLOAD,2023-12-30 21:30:33,15.08840657,0.0001347,53.216,189.5443,96.5741,263.5404,8.1775e-05,1.014e-05,0.0,0 STARLINK-3853,1 52359U 22045AE  23364.89621882  .00001014  00000-0  81775-4 0  9997,2 52359  53.2160 189.5443 0001347  96.5741 263.5404 15.08840657 95040,6917.878,95.438,540.675,538.812,0.0
52359.0,STARLINK-3853,PAYLOAD,2023-12-31 19:45:57,15.08838367,0.0001364,53.2163,185.3808,88.4283,271.6865,3.4153e-05,2.56e-06,0.0,0 STARLINK-3853,1 52359U 22045AE  23365.82358339  .00000256  00000-0  34153-4 0  9990,2 52359  53.2163 185.3808 0001364  88.4283 271.6865 15.08838367 95183,6917.885,95.438,540.694,538.807,0.0
52359.0,STARLINK-3853,PAYLOAD,2024-01-01 11:39:49,15.08839342,0.0001367,53.2163,182.4071,87.1252,272.9897,2.202e-05,6.3e-07,0.0,0 STARLINK-3853,1 52359U 22045AE  24001.48598381  .00000063  00000-0  22020-4 0  9999,2 52359  53.2163 182.4071 0001367  87.1252 272.9897 15.08839342 95282,6917.882,95.438,540.693,538.802,0.0
52359.0,STARLINK-3853,PAYLOAD,2024-01-01 19:36:44,15.08842331,0.0001343,53.2162,180.9211,86.6701,273.4444,4.0802e-05,3.62e-06,0.0,0 STARLINK-3853,1 52359U 22045AE  24001.81718077  .00000362  00000-0  40802-4 0  9992,2 52359  53.2162 180.9211 0001343  86.6701 273.4444 15.08842331 95339,6917.873,95.437,540.667,538.809,0.0
52359.0,STARLINK-3853,PAYLOAD,2024-01-02 11:30:35,15.08842903,0.0001314,53.2162,177.9474,87.46,272.6543,8.3977e-05,1.049e-05,0.0,0 STARLINK-3853,1 52359U 22045AE  24002.47957816  .00001049  00000-0  83977-4 0  9994,2 52359  53.2162 177.9474 0001314  87.4600 272.6543 15.08842903 95438,6917.872,95.437,540.646,538.828,0.0
52359.0,STARLINK-3853,PAYLOAD,2024-01-02 17:52:07,15.08844216,0.0001329,53.2162,176.758,86.9503,273.1641,9.0346e-05,1.15e-05,0.0,0 STARLINK-3853,1 52359U 22045AE  24002.74453674  .00001150  00000-0  90346-4 0  9998,2 52359  53.2162 176.7580 0001329  86.9503 273.1641 15.08844216 95473,6917.868,95.437,540.652,538.813,0.0
52359.0,STARLINK-3853,PAYLOAD,2024-01-03 11:21:22,15.08839262,0.0001441,53.2166,173.488,77.1268,282.9885,1.1669e-05,-1.02e-06,0.0,0 STARLINK-3853,1 52359U 22045AE  24003.47318257 -.00000102  00000-0  11669-4 0  9994,2 52359  53.2166 173.4880 0001441  77.1268 282.9885 15.08839262 95584,6917.883,95.438,540.745,538.751,0.0
52359.0,STARLINK-3853,PAYLOAD,2024-01-03 14:32:09,15.0883759,0.0001347,53.2164,172.8924,84.2218,275.8928,-8.7925e-06,-4.28e-06,0.0,0 STARLINK-3853,1 52359U 22045AE  24003.60566372 -.00000428  00000-0 -87925-5 0  9993,2 52359  53.2164 172.8924 0001347  84.2218 275.8928 15.08837590 95607,6917.888,95.438,540.685,538.821,0.0
52359.0,STARLINK-3853,PAYLOAD,2024-01-03 17:42:55,15.08837439,0.0001283,53.216,172.2971,90.4261,269.6878,-1.1367e-05,-4.69e-06,0.0,0 STARLINK-3853,1 52359U 22045AE  24003.73814344 -.00000469  00000-0 -11367-4 0  9993,2 52359  53.2160 172.2971 0001283  90.4261 269.6878 15.08837439 95624,6917.888,95.438,540.641,538.866,0.0
52359.0,STARLINK-3853,PAYLOAD,2024-01-04 14:22:57,15.08826394,0.0001446,53.2163,168.432,95.8498,264.2659,-8.2637e-05,-1.602e-05,0.0,0 STARLINK-3853,1 52359U 22045AE  24004.59927666 -.00001602  00000-0 -82637-4 0  9998,2 52359  53.2163 168.4320 0001446  95.8498 264.2659 15.08826394 95754,6917.922,95.438,540.787,538.787,0.0
52359.0,STARLINK-3853,PAYLOAD,2024-01-04 15:58:20,15.08826812,0.0001475,53.2166,168.1348,97.7728,262.3432,-7.9176e-05,-1.547e-05,0.0,0 STARLINK-3853,1 52359U 22045AE  24004.66551669 -.00001547  00000-0 -79176-4 0  9994,2 52359  53.2166 168.1348 0001475  97.7728 262.3432 15.08826812 95767,6917.921,95.438,540.806,538.765,0.0
52359.0,STARLINK-3853,PAYLOAD,2024-01-05 11:02:57,15.08834096,0.0001372,53.2169,164.5613,102.9549,257.1596,1.5083e-05,-4.8e-07,0.0,0 STARLINK-3853,1 52359U 22045AE  24005.46039327 -.00000048  00000-0  15083-4 0  9996,2 52359  53.2169 164.5613 0001372 102.9549 257.1596 15.08834096 95880,6917.898,95.438,540.713,538.814,0.0
